id,place_name,distance,카테고리,하위카테고리,평점,리뷰수,블로그수,phone,place_url,address_name,x,y
1957406821,일식미요이,674,일식,-,4.4,28,116,031-239-3398,http://place.map.kakao.com/1957406821,경기 수원시 권선구 권선동 1028-1,127.027593513915,37.2586589458893
14489680,원조기계우동짜장,495,일식," 돈까스,우동",4.4,5,34,031-237-7144,http://place.map.kakao.com/14489680,경기 수원시 팔달구 인계동 1134-9,127.03378404038142,37.257573386582976
683988899,오늘초밥 인계본점,1223,일식," 초밥,롤",3.7,61,179,070-7783-5555,http://place.map.kakao.com/683988899,경기 수원시 팔달구 인계동 1119-11,127.03362924815389,37.264376302206266
1260567351,백호초밥,97,일식," 초밥,롤",5.0,4,0,,http://place.map.kakao.com/1260567351,경기 수원시 권선구 권선동 1251,127.03046826789308,37.25354482005515
27298479,포동이네 수원인계동점,1203,일식," 초밥,롤",3.4,62,48,031-214-4988,http://place.map.kakao.com/27298479,경기 수원시 팔달구 인계동 1043-13,127.030078006834,37.2642583201094
485435683,마루면가 본점,710,일식," 돈까스,우동",3.3,8,244,031-267-1777,http://place.map.kakao.com/485435683,경기 수원시 팔달구 인계동 1131,127.03162404234548,37.25987704895281
774886108,미나미참치,1207,일식, 참치회,4.1,27,147,,http://place.map.kakao.com/774886108,경기 수원시 팔달구 인계동 1118-7,127.03621059048923,37.26370876969536
602978283,마초,1285,일식," 초밥,롤",0,902,0,031-222-9555,http://place.map.kakao.com/602978283,경기 수원시 팔달구 인계동 1116-13,127.036116259418,37.2644764863859
1760238867,도래반돈까스,188,일식," 돈까스,우동",4.2,6,18,031-222-8209,http://place.map.kakao.com/1760238867,경기 수원시 권선구 권선동 1255-3,127.02955499581331,37.25293414385119
24925765,묘오또 수원점,1089,일식," 돈까스,우동",4.3,65,113,031-222-4827,http://place.map.kakao.com/24925765,경기 수원시 팔달구 인계동 1044-12,127.030460904724,37.2632526591483
712559787,다함 권선점,369,일식,-,3.4,7,15,,http://place.map.kakao.com/712559787,경기 수원시 권선구 권선동 1039-14,127.030120049957,37.2565958424397
1097459935,혜화동돈까스극장 수원시청점,734,일식," 돈까스,우동",4.2,5,13,031-221-9129,http://place.map.kakao.com/1097459935,경기 수원시 팔달구 인계동 1127-5,127.03395976911756,37.25980792280112
252683341,깡우동 수원권선시장점,713,일식," 돈까스,우동 ",4.0,4,40,031-304-9798,http://place.map.kakao.com/252683341,경기 수원시 권선구 권선동 1061-8,127.02395254775,37.2555475352162
9021512,명가참치,1251,일식, 참치회,4.2,32,43,031-233-0419,http://place.map.kakao.com/9021512,경기 수원시 팔달구 인계동 1042-3,127.03096882233667,37.26474645524423
7883218,미소야 수원권선점,560,일식," 돈까스,우동 ",3.3,4,13,031-267-0399,http://place.map.kakao.com/7883218,경기 수원시 권선구 권선동 1296-7,127.035446349864,37.2494977467659
2082288727,고베규카츠 수원인계점,1211,일식," 돈까스,우동",0,2594,0,031-233-4620,http://place.map.kakao.com/2082288727,경기 수원시 팔달구 인계동 1118-12,127.034943607038,37.2640587547686
1412296170,하루인 인계직영점,1156,일식,-,4.4,16,243,031-224-6588,http://place.map.kakao.com/1412296170,경기 수원시 팔달구 인계동 1121-3,127.035443858583,37.2634278765499
68424387,2005진돈가스 수원직영점,524,일식," 돈까스,우동",4.0,11,15,031-221-9507,http://place.map.kakao.com/68424387,경기 수원시 권선구 권선동 1287-12,127.037025402449,37.2516525612025
706695939,더미락,780,일식, 일식집,5.0,1,0,031-236-0546,http://place.map.kakao.com/706695939,경기 수원시 권선구 권선동 1057-5,127.02349511975,37.2562819772265
1264987593,오마카세,871,일식, 일식집,4.3,7,40,031-222-0320,http://place.map.kakao.com/1264987593,경기 수원시 권선구 권선동 1004,127.022514488922,37.2565182411024
897852833,참치더테이블,871,일식, 참치회,3.7,3,0,031-222-0320,http://place.map.kakao.com/897852833,경기 수원시 권선구 권선동 1004,127.022513363821,37.2565254496627
18417983,우미참치 인계점,1475,일식, 참치회,3.6,13,101,031-221-2247,http://place.map.kakao.com/18417983,경기 수원시 팔달구 인계동 1034-16,127.03030446912123,37.26672891927829
1875046489,이츠모라멘 수원점,1125,일식, 일본식라면,4.2,33,127,,http://place.map.kakao.com/1875046489,경기 수원시 팔달구 인계동 1121-9,127.035320855513,37.2631666110616
264565917,상무초밥 수원인계점,1269,일식," 초밥,롤",4.3,26,1398,031-224-9333,http://place.map.kakao.com/264565917,경기 수원시 팔달구 인계동 1038-4,127.0327839406051,37.26487211241343
587944775,푸릴리 수원권선점,1408,일식," 돈까스,우동",0,38,0,070-7799-3762,http://place.map.kakao.com/587944775,경기 수원시 권선구 권선동 939-6,127.022474968534,37.26388156982575
11063635,미소야 수원시청점,801,일식," 돈까스,우동 ",4.5,8,22,031-225-3613,http://place.map.kakao.com/11063635,경기 수원시 권선구 권선동 1023-2,127.031167823788,37.2606935146167
1990758879,이치방하카타식당,740,일식,-,4.3,4,127,,http://place.map.kakao.com/1990758879,경기 수원시 권선구 권선동 1057-8,127.02396403641,37.2562305237798
26937903,수원참치,561,일식, 참치회,3.0,4,0,031-212-9603,http://place.map.kakao.com/26937903,경기 수원시 권선구 권선동 1049,127.02585873375708,37.255656160517056
721734648,흰고래연어육회 수원인계점,901,일식,-,5.0,1,12,,http://place.map.kakao.com/721734648,경기 수원시 권선구 권선동 1031,127.02426819318936,37.25912551335789
458408252,호르몬치치,1260,일식,-,4.5,18,114,010-4241-3592,http://place.map.kakao.com/458408252,경기 수원시 팔달구 인계동 1041-11,127.031734341977,37.2648327525628
27217632,테루 NC수원터미널점,1095,일식," 돈까스,우동",3.0,18,62,031-8065-3880,http://place.map.kakao.com/27217632,경기 수원시 권선구 권선동 1189,127.019910019592,37.2502186095943
1930851576,정참치,1291,일식, 참치회,4.0,8,0,031-237-0432,http://place.map.kakao.com/1930851576,경기 수원시 팔달구 인계동 1038-10,127.032151582635,37.2651002494603
629898454,스시아키라,1194,일식, 일식집,3.6,34,146,,http://place.map.kakao.com/629898454,경기 수원시 팔달구 인계동 1030-6,127.02966985321405,37.26413407928565
1446267462,오마카세 스시이찌 수원신동점,1286,일식, 일식집,4.7,22,282,0507-1446-5802,http://place.map.kakao.com/1446267462,경기 수원시 영통구 신동 933-8,127.04379716877166,37.24725135171168
23381383,팔미낙지한마리수제비,452,일식,-,0,0,0,,http://place.map.kakao.com/23381383,경기 수원시 권선구 권선동 1296-5,127.03470278693,37.250262052567
1689062449,레트로까스,271,일식," 돈까스,우동",0,0,0,,http://place.map.kakao.com/1689062449,경기 수원시 권선구 권선동 1330,127.02854990033252,37.25388949683317
1351770461,멘츠루,1224,일식, 일본식라면,4.0,48,212,070-5213-6527,http://place.map.kakao.com/1351770461,경기 수원시 팔달구 인계동 1119-11,127.033730708427,37.2643708671017
713671081,긴자 인계점,1848,일식,-,2.8,93,23,031-236-7771,http://place.map.kakao.com/713671081,경기 수원시 팔달구 인계동 950-9,127.028366545323,37.2699317008886
182997597,야키토리잔잔 인계본점,1327,일식,-,4.1,36,775,031-233-0877,http://place.map.kakao.com/182997597,경기 수원시 팔달구 인계동 1038-8,127.03227122268922,37.26542459199807
1500711960,카츠준,749,일식," 돈까스,우동",4.3,4,0,,http://place.map.kakao.com/1500711960,경기 수원시 팔달구 인계동 1126-12,127.03261844689978,37.26017682639719
377770921,규민초밥,1130,일식," 초밥,롤",4.8,18,181,031-225-5432,http://place.map.kakao.com/377770921,경기 수원시 권선구 세류동 1102-5,127.0189456466888,37.25209384063053
1165313977,스시파파,714,일식," 초밥,롤",3.0,2,0,031-221-7788,http://place.map.kakao.com/1165313977,경기 수원시 권선구 권선동 1056-7,127.02444432499485,37.2564890250305
1507433826,아지센,1267,일식," 돈까스,우동",4.5,57,57,031-237-0270,http://place.map.kakao.com/1507433826,경기 수원시 팔달구 인계동 1119,127.03366324551487,37.26477275105388
1257007273,부타,840,일식, 일식집,4.3,13,88,,http://place.map.kakao.com/1257007273,경기 수원시 팔달구 인계동 1125-1,127.032445204367,37.2610202499309
12062717,사모아생참치,452,일식, 참치회,0,0,0,,http://place.map.kakao.com/12062717,경기 수원시 권선구 권선동 1296-5,127.03470278693,37.250262052567
10684837,유치회관 본점,589,한식, 해장국,3.6,505,1051,031-234-6275,http://place.map.kakao.com/10684837,경기 수원시 팔달구 인계동 1132-4,127.032186091533,37.2587686147956
26945948,남수원장어직판장,185,한식," 해물,생선 ",3.2,21,83,031-231-2706,http://place.map.kakao.com/26945948,경기 수원시 권선구 권선동 1250,127.029501205356,37.25374149248
2057400546,삼학도수산,492,한식," 해물,생선 ",4.1,35,323,010-2666-7230,http://place.map.kakao.com/2057400546,경기 수원시 팔달구 인계동 1134-12,127.03300631232,37.2577628249905
971272997,이나경 송탄부대찌개,1121,한식," 찌개,전골",3.8,462,1506,031-223-7893,http://place.map.kakao.com/971272997,경기 수원시 팔달구 인계동 1121-6,127.03599940789886,37.26293664090717
2070337467,소담화로,61,한식," 육류,고기",4.6,18,607,0503-7152-5063,http://place.map.kakao.com/2070337467,경기 수원시 권선구 권선동 1247,127.030975600913,37.2537699493507
10262676,다래식당,581,한식," 찌개,전골",3.7,36,63,031-233-1627,http://place.map.kakao.com/10262676,경기 수원시 권선구 권선동 1046-13,127.02631447072176,37.25661837440361
11643522,크래버대게나라 수원점,573,한식," 해물,생선 ",3.2,19,62,031-239-7111,http://place.map.kakao.com/11643522,경기 수원시 팔달구 인계동 1135-6,127.030937005301,37.2586211767153
20195411,정담명가남원추어탕,620,한식," 해물,생선 ",4.0,29,65,031-224-2522,http://place.map.kakao.com/20195411,경기 수원시 권선구 권선동 1015-5,127.03051104926053,37.2590051315348
14093641,양촌리 권선점,521,한식," 육류,고기",0,233,0,031-235-9254,http://place.map.kakao.com/14093641,경기 수원시 권선구 권선동 1026-6,127.03018375533,37.2580483077862
134200835,송파아구찜,140,한식," 해물,생선 ",4.2,25,80,031-224-5955,http://place.map.kakao.com/134200835,경기 수원시 권선구 권선동 1256-1,127.030262800738,37.2527537562967
24785526,산이내린밥상 곤드레밥집,650,한식,-,2.7,28,50,031-238-2522,http://place.map.kakao.com/24785526,경기 수원시 팔달구 인계동 1132-8,127.031794036067,37.2593345756575
1042711239,하남미소 수원본점,674,한식," 육류,고기",3.6,27,54,031-239-3399,http://place.map.kakao.com/1042711239,경기 수원시 권선구 권선동 1028-1,127.02759914964784,37.25865714248983
197353927,통영돌문어보쌈 본점,623,한식," 해물,생선",4.8,36,330,031-224-1245,http://place.map.kakao.com/197353927,경기 수원시 팔달구 인계동 1133,127.03298880694,37.2589801389492
1032506645,신신강원도수산,229,한식," 해물,생선 ",4.3,18,18,031-233-9877,http://place.map.kakao.com/1032506645,경기 수원시 권선구 권선동 1066-3,127.02900975515438,37.25377044730431
24953011,메주뜰소반,549,한식,-,4.1,18,20,031-254-0731,http://place.map.kakao.com/24953011,경기 수원시 권선구 권선동 1290-4,127.03717518548844,37.25138580524061
13064467,어구미 본점,663,한식," 해물,생선",3.4,20,109,031-238-8535,http://place.map.kakao.com/13064467,경기 수원시 팔달구 인계동 1130-8,127.033178339431,37.2593197791525
27578261,차현희순두부청국장,360,한식, 두부전문점,3.9,13,21,031-233-5393,http://place.map.kakao.com/27578261,경기 수원시 권선구 권선동 1039-14,127.03008168628936,37.25650214369198
17474388,소문난대구왕뽈찜해물아구찜 권선직영점,520,한식," 해물,생선",4.0,8,67,031-233-0049,http://place.map.kakao.com/17474388,경기 수원시 권선구 권선동 1027-10,127.02960653406488,37.25789617725123
68695720,정훈수산,210,한식," 해물,생선 ",4.9,11,12,031-226-1696,http://place.map.kakao.com/68695720,경기 수원시 권선구 권선동 1369,127.0305365607901,37.25518199868694
16099305,은미정 수원본점,331,한식,-,2.8,18,31,031-232-9964,http://place.map.kakao.com/16099305,경기 수원시 권선구 권선동 1039-3,127.029984618866,37.2561886052425
142475135,인계곱창,609,한식," 육류,고기 ",4.0,25,306,031-223-2838,http://place.map.kakao.com/142475135,경기 수원시 권선구 권선동 1053-7,127.02602254675423,37.25671485055163
21196990,광자네족발순대,670,한식," 육류,고기 ",3.2,23,99,031-238-9956,http://place.map.kakao.com/21196990,경기 수원시 권선구 권선동 1051,127.02460530983518,37.25583933943402
20661283,본수원갈비 인계점,1092,한식," 육류,고기 ",3.4,38,24,031-235-8434,http://place.map.kakao.com/20661283,경기 수원시 팔달구 인계동 1123-13,127.034131477957,37.2631038869542
8585967,초암골,679,한식," 육류,고기 ",3.3,18,22,0507-1471-2662,http://place.map.kakao.com/8585967,경기 수원시 권선구 권선동 1015-2,127.029904746901,37.2594504013988
498674521,인계면옥,499,한식,-,4.4,36,259,0502-5550-9093,http://place.map.kakao.com/498674521,경기 수원시 권선구 권선동 1166-4,127.035641303322,37.2565871008387
8014408,예술갈비,532,한식," 육류,고기 ",4.0,24,51,031-221-2553,http://place.map.kakao.com/8014408,경기 수원시 권선구 권선동 1290-3,127.037007268958,37.2514507330107
10733626,장터한우,294,한식," 육류,고기",5.0,4,14,031-898-8939,http://place.map.kakao.com/10733626,경기 수원시 권선구 권선동 1065,127.028473461861,37.2544517664822
1257153645,안녕돼지국밥,679,한식, 국밥,4.5,40,121,,http://place.map.kakao.com/1257153645,경기 수원시 권선구 권선동 1021-11,127.028415448503,37.2590552103713
1446538027,밀알냉면&얼크니칼국수,164,한식, 냉면,4.1,7,25,031-234-4644,http://place.map.kakao.com/1446538027,경기 수원시 권선구 권선동 1258-2,127.030262670997,37.2524293805335
8953007,동해동태찜,511,한식," 해물,생선",4.3,10,0,031-239-3606,http://place.map.kakao.com/8953007,경기 수원시 권선구 권선동 1292-10,127.03647844093882,37.25106705232516
993811869,전주콩나루콩나물국밥,89,한식, 국밥,4.3,17,46,031-238-0756,http://place.map.kakao.com/993811869,경기 수원시 권선구 권선동 1247,127.030699486843,37.2538961673776
7914199,사거리닭발,519,한식," 육류,고기 ",4.3,4,28,031-221-9595,http://place.map.kakao.com/7914199,경기 수원시 권선구 권선동 1291-10,127.03637574722369,37.250813890531774
902957703,아리랑도가니탕,669,한식, 국밥,4.2,33,86,031-225-7890,http://place.map.kakao.com/902957703,경기 수원시 권선구 권선동 1051,127.0247429024711,37.25605285804188
2022844159,신사우물갈비,628,한식,-,4.7,6,318,031-225-1022,http://place.map.kakao.com/2022844159,경기 수원시 권선구 권선동 1022,127.029736583074,37.2589476618307
657560964,마장동고기집 수원매탄권선점,528,한식," 육류,고기",3.6,10,45,070-8800-3990,http://place.map.kakao.com/657560964,경기 수원시 권선구 권선동 1292-9,127.036637329292,37.2509805030468
1840040808,포항물회 조개전골 권선점,427,한식," 해물,생선 ",4.0,14,78,031-234-3894,http://place.map.kakao.com/1840040808,경기 수원시 권선구 권선동 1039-15,127.030370546267,37.257212092015
372482715,마장동정육식당,184,한식," 육류,고기",4.4,7,12,031-307-8933,http://place.map.kakao.com/372482715,경기 수원시 권선구 권선동 1255-7,127.029667658553,37.2527899486623
9693987,강원칡냉면,543,한식, 냉면,4.4,20,34,031-239-8998,http://place.map.kakao.com/9693987,경기 수원시 영통구 매탄동 1180-19,127.03675928238638,37.25607226331131
2142926009,하남돼지집 수원권선점,253,한식," 육류,고기 ",3.9,14,13,031-239-1600,http://place.map.kakao.com/2142926009,경기 수원시 권선구 권선동 1259-11,127.028941667883,37.2525810861602
873478578,꽃피는닭갈비,90,한식," 육류,고기 ",4.6,8,0,031-221-5999,http://place.map.kakao.com/873478578,경기 수원시 권선구 권선동 1252-8,127.03132683935632,37.25268409919046
757106240,보쌈1979,360,한식," 육류,고기 ",4.7,7,410,031-238-1979,http://place.map.kakao.com/757106240,경기 수원시 권선구 권선동 1038-6,127.02954728976174,37.25629233516644
733827297,본만두 수원권선점,222,한식," 찌개,전골",5.0,6,48,031-8002-3525,http://place.map.kakao.com/733827297,경기 수원시 권선구 권선동 1255,127.02911543574,37.2530513884479
8876979,남수원갈비,1277,한식," 육류,고기 ",4.1,31,303,031-237-5576,http://place.map.kakao.com/8876979,경기 수원시 권선구 권선동 964-16,127.020729048161,37.2610598236171
474376262,소풍,575,한식," 육류,고기",3.7,6,16,031-893-8886,http://place.map.kakao.com/474376262,경기 수원시 권선구 권선동 1292-6,127.037143349183,37.2508244647646
11243078,초가집칼국수,160,한식, 국수 ,3.7,9,13,031-226-6512,http://place.map.kakao.com/11243078,경기 수원시 권선구 권선동 1253-5,127.02982896260376,37.25308364842445
22809824,브레드몽드,261,간식," 제과,베이커리",4.9,12,0,031-225-5812,http://place.map.kakao.com/22809824,경기 수원시 권선구 권선동 1254-2,127.028657805036,37.2530785314056
10676487,유로빵,710,간식," 제과,베이커리",4.3,26,65,031-238-2460,http://place.map.kakao.com/10676487,경기 수원시 영통구 매탄동 1162,127.03752100821362,37.257764183508655
1995692749,빵장수단팥빵 수원인계점,808,간식," 제과,베이커리",3.9,8,35,031-237-0225,http://place.map.kakao.com/1995692749,경기 수원시 권선구 권선동 1023-2,127.03120392292978,37.26075477600748
579215136,정미당,684,간식," 떡,한과",4.2,5,11,031-237-5477,http://place.map.kakao.com/579215136,경기 수원시 권선구 권선동 1051,127.02457834077,37.2560997465707
12255572,배스킨라빈스 수원권선점,385,간식, 아이스크림 ,2.7,15,0,031-239-7811,http://place.map.kakao.com/12255572,경기 수원시 권선구 권선동 1296-1,127.03467384264916,37.25105137573315
767520285,갤러리베이커리,476,간식," 제과,베이커리",5.0,4,20,070-7537-2577,http://place.map.kakao.com/767520285,경기 수원시 권선구 권선동 1296-5,127.034549334522,37.249912492271
21320703,뚜레쥬르 수원권선점,453,간식," 제과,베이커리 ",3.5,8,0,031-235-0145,http://place.map.kakao.com/21320703,경기 수원시 권선구 권선동 1267,127.029012794886,37.2499392074982
13024517,파리바게뜨 권선중앙점,118,간식," 제과,베이커리 ",5.0,2,0,031-234-2616,http://place.map.kakao.com/13024517,경기 수원시 권선구 권선동 1257-1,127.0312534730726,37.25244444090584
426848812,배스킨라빈스 수원권선자이점,510,간식, 아이스크림 ,5.0,2,0,031-252-3131,http://place.map.kakao.com/426848812,경기 수원시 권선구 권선동 1330,127.02615159638304,37.25502536576818
711935001,웅조네방앗간,1019,간식," 떡,한과",5.0,5,115,1599-3486,http://place.map.kakao.com/711935001,경기 수원시 권선구 세류동 1077-1,127.02066238853772,37.25639063064519
12364587,파리바게뜨 권선3지구점,649,간식," 제과,베이커리 ",2.7,6,0,031-225-7893,http://place.map.kakao.com/12364587,경기 수원시 권선구 권선동 1311-8,127.035923917334,37.248780371508
1053972905,모잉케이크,203,간식," 제과,베이커리",5.0,4,0,,http://place.map.kakao.com/1053972905,경기 수원시 권선구 권선동 1249-4,127.029340081122,37.2539118297726
565997743,하얀풍차제과 곡반점,1323,간식," 제과,베이커리",0,473,0,0507-1327-3738,http://place.map.kakao.com/565997743,경기 수원시 권선구 곡반정동 653,127.034160157769,37.2417329195648
256070971,달링케이크,819,간식," 제과,베이커리",5.0,6,11,031-235-2282,http://place.map.kakao.com/256070971,경기 수원시 영통구 매탄동 1170,127.04035500040555,37.25574221157788
9339702,이삭토스트 수원권선3지구점,523,간식, 토스트 ,4.3,10,0,031-225-1160,http://place.map.kakao.com/9339702,경기 수원시 권선구 권선동 1291-10,127.036416318082,37.25079946134448
12364514,파리바게뜨 권선SK뷰점,615,간식," 제과,베이커리 ",2.0,5,0,031-239-8233,http://place.map.kakao.com/12364514,경기 수원시 권선구 권선동 1053-7,127.02616128033677,37.25695179435176
227842391,브레드앤밀,455,간식," 제과,베이커리",4.1,9,0,031-234-1055,http://place.map.kakao.com/227842391,경기 수원시 권선구 권선동 1295-4,127.035695045251,37.2510330514092
2143927140,엠토스트,364,간식, 토스트,4.8,5,18,010-9187-5167,http://place.map.kakao.com/2143927140,경기 수원시 권선구 권선동 1038-6,127.029590150712,37.2563581006245
1876304191,페이브베이커리 수원시청역점,863,간식," 제과,베이커리",3.3,4,181,070-4070-1550,http://place.map.kakao.com/1876304191,경기 수원시 권선구 권선동 1014-1,127.03067765883,37.2612216535997
1231891702,소예모찌,436,간식," 떡,한과",4.5,6,0,031-8067-5757,http://place.map.kakao.com/1231891702,경기 수원시 권선구 권선동 1295-3,127.035487677447,37.2510979889146
1175442616,복호두 수원시청역점,831,간식," 제과,베이커리",4.0,5,22,,http://place.map.kakao.com/1175442616,경기 수원시 팔달구 인계동 1125-1,127.032234368394,37.2609536303675
971853515,큰집닭강정 권선점,233,간식, 닭강정,3.0,1,0,031-222-3350,http://place.map.kakao.com/971853515,경기 수원시 권선구 권선동 1262,127.02960538560612,37.25208084268569
1597988248,요를레이케이크,540,간식," 제과,베이커리",4.3,4,34,,http://place.map.kakao.com/1597988248,경기 수원시 팔달구 인계동 1134-4,127.034019799362,37.25793193422527
27440795,한아름제과,443,간식," 제과,베이커리",5.0,2,0,031-898-9990,http://place.map.kakao.com/27440795,경기 수원시 권선구 권선동 1159-3,127.03285507571933,37.25734117886451
1716099299,슈가그루브,597,간식," 제과,베이커리",5.0,3,52,0502-5552-7821,http://place.map.kakao.com/1716099299,경기 수원시 팔달구 인계동 1132-1,127.03242058654124,37.2588172071258
21442677,파리바게뜨 수원권선자이점,622,간식," 제과,베이커리 ",3.2,5,0,031-221-5114,http://place.map.kakao.com/21442677,경기 수원시 권선구 권선동 1062-2,127.02495121177031,37.25535558693398
8933388,로티맘 권선SK뷰점,604,간식," 제과,베이커리",0,0,0,031-234-0006,http://place.map.kakao.com/8933388,경기 수원시 권선구 권선동 1036,127.02651304471902,37.25712741952138
1035812095,뿌야베어,359,간식," 제과,베이커리",5.0,5,0,0507-1485-7302,http://place.map.kakao.com/1035812095,경기 수원시 권선구 권선동 1240,127.0355516428835,37.25289465136525
1872130272,이음 망개떡,1123,간식," 떡,한과",3.8,4,0,031-216-3868,http://place.map.kakao.com/1872130272,경기 수원시 영통구 매탄동 1270-1,127.042250523498,37.258909617991
975575150,듀이케이크,355,간식," 제과,베이커리",0,0,0,,http://place.map.kakao.com/975575150,경기 수원시 권선구 권선동 1240,127.03554383381076,37.253067654131165
20344652,함시루,669,간식," 떡,한과",5.0,1,28,031-224-1199,http://place.map.kakao.com/20344652,경기 수원시 권선구 권선동 1238,127.039069097017,37.2540847228183
10272826,농산물떡집,669,간식," 떡,한과",5.0,2,0,031-221-1882,http://place.map.kakao.com/10272826,경기 수원시 권선구 권선동 1051,127.024749667085,37.2560564608015
10716278,정병창과자점,612,간식," 제과,베이커리",4.5,23,0,031-233-0193,http://place.map.kakao.com/10716278,경기 수원시 권선구 권선동 1286-8,127.03808155948272,37.25164321580159
1394434102,파파노아이 신동점,1196,간식," 제과,베이커리",4.1,40,53,031-206-8204,http://place.map.kakao.com/1394434102,경기 수원시 영통구 신동 929-4,127.0424614711222,37.24711848360573
1338238022,경성찹쌀꽈배기 권선점,760,간식," 제과,베이커리",4.5,4,0,031-267-1516,http://place.map.kakao.com/1338238022,경기 수원시 권선구 권선동 1364,127.030093578515,37.2467240108756
1038884511,오사랑케이크,1105,간식," 제과,베이커리",4.1,8,125,0502-5552-3881,http://place.map.kakao.com/1038884511,경기 수원시 영통구 신동 920-5,127.04300046919288,37.24952678102762
695825338,소꿉케이크,752,간식," 제과,베이커리",5.0,1,30,031-8019-5003,http://place.map.kakao.com/695825338,경기 수원시 영통구 매탄동 1171-4,127.039704397478,37.2553829152144
240395215,모범제빵소,764,간식," 제과,베이커리",4.0,10,36,031-226-0080,http://place.map.kakao.com/240395215,경기 수원시 권선구 권선동 1364,127.030138645298,37.2466807492646
13007147,파리바게뜨 수원시청역,1102,간식," 제과,베이커리 ",3.4,8,14,,http://place.map.kakao.com/13007147,경기 수원시 팔달구 인계동 1113-11,127.03221173550884,37.26339726354868
1799122140,호시타코야끼 수원권선점,665,간식, 호시타코야끼,4.6,10,12,031-237-7779,http://place.map.kakao.com/1799122140,경기 수원시 권선구 권선동 1311-8,127.035981328596,37.2486280775633
2083191210,낭트베이커리카페,823,간식," 제과,베이커리",4.7,16,0,031-225-1125,http://place.map.kakao.com/2083191210,경기 수원시 팔달구 인계동 1125,127.033118112867,37.2607975060957
1221428930,장미빵집,926,간식," 제과,베이커리",4.9,7,33,010-2154-3287,http://place.map.kakao.com/1221428930,경기 수원시 영통구 매탄동 1163-12,127.040857451837,37.2572828232264
648207900,메고지고 수원아이파크시티점,762,간식," 떡,한과 ",0,0,0,,http://place.map.kakao.com/648207900,경기 수원시 권선구 권선동 1364,127.030296439593,37.2466816100427
25589351,크리스피크림도넛 수원인계점,1299,간식, 도넛 ,3.6,16,89,031-239-1937,http://place.map.kakao.com/25589351,경기 수원시 팔달구 인계동 1114-7,127.033469476803,37.2650863686021
758558886,온설기,478,간식," 떡,한과",0,0,0,010-7937-3055,http://place.map.kakao.com/758558886,경기 수원시 권선구 권선동 1047-18,127.027337842556,37.2561505010559
306026566,뒷골목전집,196,술집," 호프,요리주점",4.4,5,13,010-5768-1762,http://place.map.kakao.com/306026566,경기 수원시 권선구 권선동 1255-8,127.029514364857,37.2528007994978
826500722,거기포차 권선점,149,술집, 실내포장마차,4.7,9,53,,http://place.map.kakao.com/826500722,경기 수원시 권선구 권선동 1253-6,127.029969849833,37.2530529773592
1414415371,올디스레코드,229,술집,-,3.0,6,16,,http://place.map.kakao.com/1414415371,경기 수원시 권선구 권선동 1255-11,127.029072553188,37.252923450762
61882003,역전할머니맥주 수원권선점,161,술집," 호프,요리주점 ",4.8,5,0,010-7941-3816,http://place.map.kakao.com/61882003,경기 수원시 권선구 권선동 1256-11,127.030056489176,37.2526637044602
1507442664,낭만짚불구이 수원권선점,186,술집," 호프,요리주점",4.5,2,0,,http://place.map.kakao.com/1507442664,경기 수원시 권선구 권선동 1258-10,127.030073250886,37.2522960742839
16009815,대박빈대떡,163,술집," 호프,요리주점",5.0,2,0,,http://place.map.kakao.com/16009815,경기 수원시 권선구 권선동 1255-5,127.029897631057,37.252854765975
1929545378,경성술집 수원권선점,131,술집," 호프,요리주점 ",4.3,7,0,0507-1315-3445,http://place.map.kakao.com/1929545378,경기 수원시 권선구 권선동 1257-2,127.031159873271,37.2523390434371
617205714,쏘시지요 수원권선점,149,술집, 일본식주점 ,0,0,0,,http://place.map.kakao.com/617205714,경기 수원시 권선구 권선동 1256,127.030119664109,37.2527952408103
980593224,황금뎅,218,술집, 오뎅바,5.0,5,72,010-9496-5623,http://place.map.kakao.com/980593224,경기 수원시 권선구 권선동 1259-2,127.029319309889,37.2526692955533
49627269,투다리 권선점,509,술집, 오뎅바 ,3.4,5,0,031-224-9292,http://place.map.kakao.com/49627269,경기 수원시 권선구 권선동 1292-1,127.03652582883528,37.25116435048914
933627522,부라보맥주 수원권선점,148,술집," 호프,요리주점 ",0,0,0,070-7543-3673,http://place.map.kakao.com/933627522,경기 수원시 권선구 권선동 1256,127.030109525847,37.252811462178
1011857598,꿀밤포차,205,술집, 실내포장마차,0,0,0,,http://place.map.kakao.com/1011857598,경기 수원시 권선구 권선동 1259-6,127.02969568165383,37.25239077919881
418418322,쿠시카츠 와가마마,820,술집, 일본식주점,5.0,42,148,,http://place.map.kakao.com/418418322,경기 수원시 영통구 매탄동 1169-7,127.04026269617964,37.25598462365278
1993198329,미생맥주 수원권선점,683,술집," 호프,요리주점",5.0,1,13,,http://place.map.kakao.com/1993198329,경기 수원시 권선구 권선동 1016-15,127.029528220508,37.2594207614871
875696805,펀비어킹 수원권선롯데마트점,510,술집," 호프,요리주점 ",5.0,3,29,031-236-7542,http://place.map.kakao.com/875696805,경기 수원시 권선구 권선동 1297-2,127.03585480712574,37.25040948058867
15963252,목포홍탁,712,술집," 호프,요리주점",4.4,9,0,031-232-7549,http://place.map.kakao.com/15963252,경기 수원시 권선구 권선동 1056-8,127.0243281445099,37.2562583818706
550334034,진구네,524,술집," 호프,요리주점",5.0,4,31,,http://place.map.kakao.com/550334034,경기 수원시 권선구 권선동 1171-3,127.036192447808,37.2564211416809
16403257,챤스,231,술집,-,0,0,0,031-898-7872,http://place.map.kakao.com/16403257,경기 수원시 권선구 권선동 1259-9,127.029257253883,37.2525125292676
2095879162,드루와술퍼맨,203,술집," 호프,요리주점",0,0,0,,http://place.map.kakao.com/2095879162,경기 수원시 권선구 권선동 1259-4,127.029569511632,37.2525818320799
2022663210,임봉학수원왕가리 꼬치본점,836,술집," 호프,요리주점",4.0,5,18,031-223-7848,http://place.map.kakao.com/2022663210,경기 수원시 영통구 매탄동 1166,127.03997685100602,37.2568803575264
67593544,감성포차용s,541,술집, 실내포장마차,5.0,4,0,0507-1863-7521,http://place.map.kakao.com/67593544,경기 수원시 권선구 권선동 1290-9,127.037007175531,37.2512597117012
2069998193,대식가,743,술집,-,4.7,10,277,0503-7150-1073,http://place.map.kakao.com/2069998193,경기 수원시 권선구 권선동 1016-14,127.028240932772,37.2596265132944
340042635,오늘도술집,546,술집," 호프,요리주점",5.0,2,0,031-233-8846,http://place.map.kakao.com/340042635,경기 수원시 팔달구 인계동 1134-4,127.033818077763,37.2580644453407
1891070190,이돈,538,술집," 호프,요리주점",5.0,3,0,,http://place.map.kakao.com/1891070190,경기 수원시 팔달구 인계동 1134-4,127.033784225486,37.2579878663357
10595380,써너스호프&소주,536,술집," 호프,요리주점",0,0,0,031-232-0689,http://place.map.kakao.com/10595380,경기 수원시 권선구 권선동 1283-7,127.037426997118,37.2523011865937
554769889,시각,743,술집," 호프,요리주점",5.0,9,21,0503-7150-7305,http://place.map.kakao.com/554769889,경기 수원시 영통구 매탄동 1167-8,127.03949824722054,37.25563707839365
21340588,스카이,411,술집," 호프,요리주점",0,0,0,,http://place.map.kakao.com/21340588,경기 수원시 권선구 권선동 1296-1,127.034969116462,37.2509575803127
838321004,포차제작소 수원본점,626,술집, 실내포장마차,3.5,4,24,,http://place.map.kakao.com/838321004,경기 수원시 팔달구 인계동 1132,127.03258978339996,37.25906044227028
2071266796,풍덕천두꺼비집 수원권선점,602,술집," 호프,요리주점",4.5,4,0,,http://place.map.kakao.com/2071266796,경기 수원시 권선구 권선동 1052-3,127.025949212207,37.2565301527754
27303516,펀비어킹 권선시장점,702,술집," 호프,요리주점 ",4.0,1,0,031-236-7800,http://place.map.kakao.com/27303516,경기 수원시 권선구 권선동 1052-8,127.024668679796,37.2565898953483
1430159846,수원왕가리 본점,835,술집," 호프,요리주점",4.0,1,29,031-223-7882,http://place.map.kakao.com/1430159846,경기 수원시 영통구 매탄동 1166,127.039863082657,37.2570398805279
1101312193,캠핑포차,625,술집, 실내포장마차,4.0,1,65,,http://place.map.kakao.com/1101312193,경기 수원시 권선구 권선동 1050,127.02510351436771,37.25573741695078
1940432628,펀비어킹 수원인계파비오점,646,술집," 호프,요리주점 ",1.3,3,29,031-225-2926,http://place.map.kakao.com/1940432628,경기 수원시 팔달구 인계동 1132-20,127.031982276405,37.2592948790743
1402069396,밤이술래,647,술집, 실내포장마차,5.0,2,90,070-8691-2581,http://place.map.kakao.com/1402069396,경기 수원시 권선구 권선동 1052-11,127.025310044864,37.2564744264455
1912403417,꼬꼬밥상,725,술집," 호프,요리주점",5.0,2,20,031-225-2959,http://place.map.kakao.com/1912403417,경기 수원시 팔달구 인계동 1127-5,127.03395860743922,37.25973133449845
699353085,어부바,780,술집," 호프,요리주점",4.4,9,68,,http://place.map.kakao.com/699353085,경기 수원시 권선구 권선동 1195-4,127.023557592144,37.2505639410799
1951686828,생활맥주 수원인계점,714,술집," 호프,요리주점 ",3.5,2,38,031-226-2267,http://place.map.kakao.com/1951686828,경기 수원시 팔달구 인계동 1131-1,127.03206369699606,37.25989855573291
1301801791,투다리 아이파크시티점,768,술집, 오뎅바 ,3.6,5,0,031-222-8219,http://place.map.kakao.com/1301801791,경기 수원시 권선구 권선동 1364,127.03067398068742,37.24658960627857
20231386,빠네비노,756,술집, 와인바,4.0,13,20,031-236-7434,http://place.map.kakao.com/20231386,경기 수원시 팔달구 인계동 1127-1,127.0346260145183,37.259838365286114
15919898,전이네막걸리집,713,술집,-,5.0,2,12,031-221-9278,http://place.map.kakao.com/15919898,경기 수원시 권선구 권선동 1194-8,127.024134840446,37.2510143469129
465375842,술창꼬,677,술집," 호프,요리주점",5.0,1,0,031-224-4999,http://place.map.kakao.com/465375842,경기 수원시 권선구 권선동 1021-3,127.028826952108,37.2591731475159
564453126,육전면사무소 수원시청역점,836,술집," 호프,요리주점",5.0,4,70,031-546-0934,http://place.map.kakao.com/564453126,경기 수원시 권선구 권선동 1013-3,127.0292762374234,37.26078950797568
861919134,쌀의눈물,538,술집," 호프,요리주점",0,0,0,070-8825-3704,http://place.map.kakao.com/861919134,경기 수원시 팔달구 인계동 1134-4,127.03385410884,37.2579716276107
1612896766,사계절뷔페&호프,542,술집," 호프,요리주점",0,0,0,,http://place.map.kakao.com/1612896766,경기 수원시 권선구 권선동 1296-7,127.035347223711,37.2496311309583
1019074814,대포한잔,529,술집," 호프,요리주점",0,0,0,,http://place.map.kakao.com/1019074814,경기 수원시 권선구 권선동 1265,127.029483576961,37.2490002029927
10305230,도미노피자 권선점,440,양식, 피자 ,3.6,9,13,031-238-3082,http://place.map.kakao.com/10305230,경기 수원시 권선구 권선동 1159-1,127.032532693791,37.2573737054461
27410593,한명숙피자 수원점,785,양식, 피자,4.2,19,15,031-237-2202,http://place.map.kakao.com/27410593,경기 수원시 영통구 매탄동 1167-14,127.039642926328,37.2563875991487
21352873,파파존스 권선점,499,양식, 피자 ,4.2,12,12,031-232-0015,http://place.map.kakao.com/21352873,경기 수원시 권선구 권선동 1330,127.02625754135477,37.25498479536285
2096970495,라루치아 본점,1159,양식, 이탈리안,4.2,84,458,031-205-6095,http://place.map.kakao.com/2096970495,경기 수원시 영통구 신동 975,127.04137351244567,37.24656742934992
27390903,7번가피자 권선점,390,양식, 피자 ,4.8,5,0,031-223-7771,http://place.map.kakao.com/27390903,경기 수원시 권선구 권선동 1064,127.0274376411758,37.254700699056905
982049246,미스심햄버거,261,양식, 햄버거,3.8,5,0,031-233-7798,http://place.map.kakao.com/982049246,경기 수원시 권선구 권선동 1270,127.03260220807,37.2512700169169
1895474117,심야스테이크 권선점,568,양식," 스테이크,립",5.0,3,17,031-223-7270,http://place.map.kakao.com/1895474117,경기 수원시 권선구 권선동 1048-16,127.025908411016,37.2558868167685
597029629,파스타입니다 권선점,230,양식, 이탈리안 ,4.8,4,0,070-8842-0002,http://place.map.kakao.com/597029629,경기 수원시 권선구 권선동 1262,127.0296256826072,37.25210066057619
1378960172,라루치아 2호점,1154,양식, 이탈리안,3.7,15,85,,http://place.map.kakao.com/1378960172,경기 수원시 영통구 신동 990,127.04086837901112,37.24620898893445
19851800,이비스앰배서더 수원점 르빠르지엥,639,양식," 스테이크,립",0,0,0,,http://place.map.kakao.com/19851800,경기 수원시 팔달구 인계동 1132-12,127.03131602714598,37.2592409945955
27213869,피자몰 NC수원터미널점,1096,양식, 피자 ,3.3,37,308,070-5159-2718,http://place.map.kakao.com/27213869,경기 수원시 권선구 권선동 1189,127.01990437695684,37.25019248025932
26320399,도미노피자 남수원점,952,양식, 피자 ,3.5,6,0,031-225-3082,http://place.map.kakao.com/26320399,경기 수원시 권선구 권선동 989-4,127.022448422568,37.25800497489588
1244617509,포크너 인계점,1160,양식, 이탈리안,4.7,58,3319,070-8807-4752,http://place.map.kakao.com/1244617509,경기 수원시 팔달구 인계동 1121-4,127.03570989763,37.2633953590877
2000109404,프레드피자 수원시청점,386,양식, 피자 ,0,0,0,031-223-8295,http://place.map.kakao.com/2000109404,경기 수원시 권선구 권선동 1164-17,127.033226789185,37.2566995323907
609688821,PPK키친 본점,1364,양식,-,4.6,32,468,031-309-9839,http://place.map.kakao.com/609688821,경기 수원시 팔달구 인계동 1040-3,127.03151264130514,37.265771697477845
1602989649,구쁘다화덕피자,327,양식, 피자,5.0,1,0,031-234-9982,http://place.map.kakao.com/1602989649,경기 수원시 권선구 권선동 1042-16,127.02936562985656,37.25584456181472
19746665,피자마루 수원권선시장점,578,양식, 피자 ,2.6,5,0,031-223-1082,http://place.map.kakao.com/19746665,경기 수원시 권선구 권선동 1062-16,127.025421223128,37.2552273585741
1325405915,노모어피자 인계권선점,767,양식, 피자,4.0,2,21,031-238-1171,http://place.map.kakao.com/1325405915,경기 수원시 권선구 권선동 1020-3,127.027424743657,37.2595456113063
1873182837,불타는랍스터 권선점,327,양식, 해산물 ,5.0,2,0,031-233-8582,http://place.map.kakao.com/1873182837,경기 수원시 권선구 권선동 1162,127.03303718789412,37.25618779285998
1700825188,자연임실치즈피자 수원권선점,531,양식, 피자,5.0,3,0,031-236-2205,http://place.map.kakao.com/1700825188,경기 수원시 권선구 권선동 1265,127.02947455497484,37.24898759061677
2041849931,미미,496,양식, 햄버거,5.0,1,0,,http://place.map.kakao.com/2041849931,경기 수원시 팔달구 인계동 1134-9,127.03378178988142,37.25758239764556
18384980,피자스쿨 수원권선시장점,469,양식, 피자 ,4.8,4,0,031-267-1082,http://place.map.kakao.com/18384980,경기 수원시 권선구 권선동 1330,127.02657989587,37.2548955201294
1166725350,빅스타피자 수원팔달인계점,447,양식, 피자 ,3.9,8,20,031-222-7440,http://place.map.kakao.com/1166725350,경기 수원시 권선구 권선동 1165-4,127.034048684912,37.256991236898
1779280978,백종원의빽보이피자 수원권선점,589,양식, 피자 ,2.8,4,13,1668-3164,http://place.map.kakao.com/1779280978,경기 수원시 권선구 권선동 1050,127.02563335670884,37.25586164740908
1447379202,점보피자,312,양식, 피자,0,0,0,0507-1407-8584,http://place.map.kakao.com/1447379202,경기 수원시 권선구 권선동 1043-8,127.028451042925,37.2547851579827
11881015,트라토리아 본점,1393,양식, 이탈리안,3.6,26,70,031-225-6996,http://place.map.kakao.com/11881015,경기 수원시 팔달구 인계동 1016-2,127.026484364718,37.2653620539656
964379281,파스타예요 수원본점,634,양식, 이탈리안,1.0,1,0,,http://place.map.kakao.com/964379281,경기 수원시 권선구 권선동 1035,127.02613769457857,37.2572022895605
10866109,피자스쿨 수원권선점,637,양식, 피자 ,2.0,7,0,031-222-5090,http://place.map.kakao.com/10866109,경기 수원시 권선구 권선동 1311-8,127.035910451627,37.2489065218135
1069295058,운멜로 4호점,1174,양식,-,3.8,27,299,031-273-0149,http://place.map.kakao.com/1069295058,경기 수원시 영통구 신동 992,127.040808475493,37.2458981491319
1937400367,사계절피자 권선점,380,양식, 피자,3.0,1,0,0503-7152-6235,http://place.map.kakao.com/1937400367,경기 수원시 권선구 권선동 1169-7,127.0350253275068,37.25550963681003
1956229879,피자스톰 수원시청점,530,양식, 피자 ,2.5,6,0,031-222-3122,http://place.map.kakao.com/1956229879,경기 수원시 권선구 권선동 1047-4,127.026726926201,37.256286698086
1083856827,피나치공 수원매탄점,658,양식, 피자 ,2.5,8,0,031-238-6301,http://place.map.kakao.com/1083856827,경기 수원시 영통구 매탄동 1174-10,127.038807934697,37.2547677997342
107570791,아빠가만든전복장 아장아장,1184,양식, 해산물,0,343,0,031-205-1154,http://place.map.kakao.com/107570791,경기 수원시 영통구 신동 979,127.04122899457444,37.24610974900623
915593434,포고그릴스테이크하우스,1247,양식," 스테이크,립",4.4,27,43,031-8067-5524,http://place.map.kakao.com/915593434,경기 수원시 팔달구 인계동 1042-3,127.030951894474,37.2647041106852
896523045,웅파이 권선점,909,양식,-,5.0,13,72,031-233-2751,http://place.map.kakao.com/896523045,경기 수원시 권선구 권선동 1193-1,127.02257891190872,37.24953333708483
818248904,투어클락,1218,양식, 피자,4.4,25,273,031-546-3484,http://place.map.kakao.com/818248904,경기 수원시 팔달구 인계동 1119-9,127.034164693143,37.2642599144878
1209267667,도프셰프,1224,양식,-,3.8,39,348,031-233-0701,http://place.map.kakao.com/1209267667,경기 수원시 팔달구 인계동 1119-11,127.033730708427,37.2643708671017
281941062,럭키친,806,양식,-,0,0,0,,http://place.map.kakao.com/281941062,경기 수원시 팔달구 인계동 1127-1,127.03471077048457,37.26029336704636
1018970965,네오피자 수원1호점,752,양식, 피자,4.0,1,0,031-222-4538,http://place.map.kakao.com/1018970965,경기 수원시 권선구 권선동 1057-7,127.023803964665,37.2562197435489
21307896,호텔일마레 레스토랑,654,양식, 이탈리안,0,0,0,031-233-1123,http://place.map.kakao.com/21307896,경기 수원시 권선구 권선동 1015-4,127.030066999268,37.2592557350519
1210373446,투엑스피자,1007,양식, 피자,4.3,4,0,031-547-9477,http://place.map.kakao.com/1210373446,경기 수원시 권선구 곡반정동 517-8,127.031964712683,37.2444051319192
271744123,마일리버거 신동점,1243,양식, 햄버거,4.3,39,57,,http://place.map.kakao.com/271744123,경기 수원시 영통구 신동 933,127.04393522625018,37.24819919948101
1027418902,다이스버거 곡반정동점,946,양식, 햄버거,1.5,2,0,031-232-3227,http://place.map.kakao.com/1027418902,경기 수원시 권선구 곡반정동 511-3,127.034826772162,37.2453603335589
1629195665,뉴욕버거 수원점,962,양식, 햄버거 ,4.7,12,0,,http://place.map.kakao.com/1629195665,경기 수원시 권선구 권선동 1189,127.021695328609,37.2498686907646
12390183,우니코,793,양식, 이탈리안,0,0,0,,http://place.map.kakao.com/12390183,경기 수원시 팔달구 인계동 1127-1,127.03459011082,37.2602096053873
10744886,일품숯불바베큐,149,치킨,-,4.6,10,23,031-238-8284,http://place.map.kakao.com/10744886,경기 수원시 권선구 권선동 1257-3,127.03110457755383,37.252184078420186
680707698,지코바 권선1호점,89,치킨, 지코바,4.2,5,0,031-235-1474,http://place.map.kakao.com/680707698,경기 수원시 권선구 권선동 1252-7,127.031151023849,37.252747218645
26637568,교촌치킨 권선1호점,285,치킨, 교촌치킨,3.4,21,14,031-232-0292,http://place.map.kakao.com/26637568,경기 수원시 권선구 권선동 1260-5,127.02851111657496,37.252672196045886
7985585,BBQ 수원곡선점,232,치킨, BBQ,4.8,11,0,031-224-1189,http://place.map.kakao.com/7985585,경기 수원시 권선구 권선동 1259-9,127.029230205587,37.2525233484746
1550130058,수원남문통닭거리 권선점,131,치킨,-,1.0,2,15,,http://place.map.kakao.com/1550130058,경기 수원시 권선구 권선동 1256-2,127.030414962331,37.2527311912022
1635402905,기영이숯불두마리치킨 수원인계점,509,치킨, 기영이숯불두마리치킨,2.6,5,18,031-890-5122,http://place.map.kakao.com/1635402905,경기 수원시 팔달구 인계동 1134-9,127.03391033449287,37.25766435583318
1495348744,사나운치킨 온수골점,386,치킨,-,4.9,14,12,031-223-8895,http://place.map.kakao.com/1495348744,경기 수원시 권선구 권선동 1296-2,127.03464903182504,37.25102254958452
8195802,굽네치킨 권선2동점,224,치킨, 굽네치킨,2.6,5,0,031-898-9293,http://place.map.kakao.com/8195802,경기 수원시 권선구 권선동 1259-8,127.029387983708,37.2524512259086
201160413,BHC치킨 권선점,415,치킨, BHC치킨,3.0,10,0,031-226-9911,http://place.map.kakao.com/201160413,경기 수원시 권선구 권선동 1330,127.0270870308946,37.254574633683085
1910068058,네네치킨 수원권선점,122,치킨, 네네치킨,3.7,3,0,031-232-4479,http://place.map.kakao.com/1910068058,경기 수원시 권선구 권선동 1250-3,127.03019207900768,37.25348361982736
319157741,갓튀긴후라이드 권선인계점,306,치킨, 갓튀긴후라이드,4.3,12,28,031-221-9909,http://place.map.kakao.com/319157741,경기 수원시 권선구 권선동 1260-3,127.0283881536046,37.25240731868615
12437526,진미가마솥통닭,335,치킨,-,4.2,5,12,031-226-9229,http://place.map.kakao.com/12437526,경기 수원시 권선구 권선동 1042-15,127.029438952793,37.2559797001132
179557549,수원왕갈비통닭,360,치킨,-,3.8,4,39,010-7928-7530,http://place.map.kakao.com/179557549,경기 수원시 권선구 권선동 1042,127.02920115807802,37.25611581653333
1440050133,치킨더홈 오산운암점,99,치킨, 치킨더홈,0,0,0,031-238-1148,http://place.map.kakao.com/1440050133,경기 수원시 권선구 권선동 1251,127.030446826765,37.25348445564
1253847885,장안통닭 권선직영점,213,치킨,-,2.5,2,0,031-223-9333,http://place.map.kakao.com/1253847885,경기 수원시 권선구 권선동 1259,127.029542401085,37.2524331666046
1641310785,치킨인류 수원권선점,680,치킨,-,3.0,10,11,,http://place.map.kakao.com/1641310785,경기 수원시 권선구 권선동 1062,127.024314372031,37.2554942999053
1511289653,올댓치킨 권선점,294,치킨,-,5.0,3,0,,http://place.map.kakao.com/1511289653,경기 수원시 권선구 권선동 1260-4,127.028447948606,37.2525514713485
296501290,자담치킨 수원권선점,193,치킨, 자담치킨,3.5,4,0,031-222-0288,http://place.map.kakao.com/296501290,경기 수원시 권선구 권선동 1258-11,127.02994363124,37.25231232593503
692005549,돈치킨 인계직영점,496,치킨, 돈치킨,5.0,1,28,031-236-8892,http://place.map.kakao.com/692005549,경기 수원시 팔달구 인계동 1134-9,127.0338573063467,37.25755984999783
1516738545,위너스치킨,647,치킨,-,5.0,4,0,031-223-0978,http://place.map.kakao.com/1516738545,경기 수원시 권선구 권선동 1315,127.033608388983,37.2478764026544
1499566046,후라이드참잘하는집 권선세류점,600,치킨, 후라이드참잘하는집,4.5,10,23,031-222-4589,http://place.map.kakao.com/1499566046,경기 수원시 권선구 권선동 1052-3,127.02600896648356,37.25655987409302
18904051,BBQ 수원권선행복점,564,치킨, BBQ,3.0,2,0,031-236-3692,http://place.map.kakao.com/18904051,경기 수원시 권선구 권선동 1048,127.02609334216692,37.25607329213637
2123932453,맛닭꼬 수원권선점,486,치킨, 맛닭꼬,2.0,6,0,031-222-5592,http://place.map.kakao.com/2123932453,경기 수원시 권선구 권선동 1330,127.02641084151728,37.25497845395244
1165151367,푸라닭치킨 수원인계점,547,치킨, 푸라닭치킨,2.3,6,0,031-225-9206,http://place.map.kakao.com/1165151367,경기 수원시 팔달구 인계동 1134-4,127.033933045467,37.25803377697378
16624523,맥시칸치킨 권선점,415,치킨, 맥시칸치킨,4.8,4,0,031-238-3728,http://place.map.kakao.com/16624523,경기 수원시 권선구 권선동 1330,127.02711636340746,37.25464400733535
13313550,코리안바베큐 권선3점,597,치킨, 코리안바베큐,4.0,1,0,031-226-9599,http://place.map.kakao.com/13313550,경기 수원시 권선구 권선동 1291-5,127.037263848488,37.250607275265
1196029164,소담치킨 권선가족점,558,치킨,-,3.8,6,14,031-221-9253,http://place.map.kakao.com/1196029164,경기 수원시 권선구 권선동 1291-8,127.03681753954,37.2507011234704
188874583,맥시칸치킨 권선2점,563,치킨, 맥시칸치킨,4.4,11,0,031-222-9959,http://place.map.kakao.com/188874583,경기 수원시 권선구 권선동 1286-5,127.037611665247,37.2519190854511
11235712,처갓집양념치킨 권선점,603,치킨, 처갓집양념치킨,4.6,9,0,031-222-8202,http://place.map.kakao.com/11235712,경기 수원시 권선구 권선동 1028-6,127.028222367966,37.2582109792972
26235215,계림원누룽지통닭구이 수원권선점,781,치킨, 계림원,4.0,13,68,031-221-5143,http://place.map.kakao.com/26235215,경기 수원시 권선구 권선동 1014-5,127.03049811038362,37.260464824185455
1476346101,후라이드치킨ZIP 권선점,437,치킨, 후라이드치킨ZIP,0,0,0,0503-6211-6983,http://place.map.kakao.com/1476346101,경기 수원시 권선구 권선동 1038-17,127.029819298343,37.2571626747533
2081282473,꾸브라꼬숯불치킨 경기권선점,535,치킨, 꾸브라꼬숯불치킨,0,0,0,031-307-3947,http://place.map.kakao.com/2081282473,경기 수원시 팔달구 인계동 1135-8,127.03104283182644,37.25828596101644
9657588,궁숯불바베큐,595,치킨,-,5.0,3,0,,http://place.map.kakao.com/9657588,경기 수원시 권선구 권선동 1046,127.02636415754,37.2568706554615
1163985411,굽네치킨 곡반정점,890,치킨, 굽네치킨,3.5,8,0,031-232-7892,http://place.map.kakao.com/1163985411,경기 수원시 권선구 곡반정동 507-8,127.033784352841,37.2456507720257
11795679,BHC치킨 매탄점,724,치킨, BHC치킨,4.4,10,0,031-222-2099,http://place.map.kakao.com/11795679,경기 수원시 영통구 매탄동 1162,127.037565039989,37.2579020291353
1974541467,배달이닭,557,치킨,-,0,0,0,031-233-3332,http://place.map.kakao.com/1974541467,경기 수원시 권선구 권선동 1027-18,127.0288896416996,37.258025203488025
121054913,60계치킨 수원권선점,763,치킨, 60계치킨,1.9,11,0,031-221-6061,http://place.map.kakao.com/121054913,경기 수원시 권선구 권선동 1364,127.030138649604,37.2466915618008
21853795,엄지가마솥통닭,635,치킨,-,4.0,6,0,031-235-9911,http://place.map.kakao.com/21853795,경기 수원시 권선구 권선동 1303,127.038211036079,37.2513494337375
22018236,페리카나 권선점,717,치킨, 페리카나,3.4,5,0,031-233-8735,http://place.map.kakao.com/22018236,경기 수원시 권선구 권선동 1056-8,127.02429434460323,37.25631245141018
1500561539,치교치밥&치킨 권선점,544,치킨, 치교치밥&치킨,0,0,0,,http://place.map.kakao.com/1500561539,경기 수원시 권선구 권선동 1296-7,127.035356233701,37.2496158105042
1235172851,보드람치킨 권선점,669,치킨, 보드람치킨,3.7,7,0,031-222-7003,http://place.map.kakao.com/1235172851,경기 수원시 권선구 권선동 1036,127.02700719649263,37.25828695032544
1432606770,푸라닭치킨 수원권선점,768,치킨, 푸라닭치킨,2.7,7,0,031-235-9206,http://place.map.kakao.com/1432606770,경기 수원시 권선구 권선동 1362,127.02735610586744,37.24742658876974
1460830632,쌀통닭 수원권선점,802,치킨, 쌀통닭,5.0,1,0,031-233-5235,http://place.map.kakao.com/1460830632,경기 수원시 권선구 권선동 1056-12,127.023372330476,37.2565415020013
1542735407,옛날통닭 신매탄점,769,치킨,-,5.0,6,0,031-224-7755,http://place.map.kakao.com/1542735407,경기 수원시 영통구 매탄동 1170-7,127.039993950064,37.2551079995135
1051146271,치킨플러스 수원권선점,729,치킨, 치킨플러스,0,0,0,,http://place.map.kakao.com/1051146271,경기 수원시 권선구 권선동 1199-1,127.024538056061,37.2500609592629
1907971252,지지고 수원권선점,511,도시락, 지지고,5.0,1,0,031-238-2290,http://place.map.kakao.com/1907971252,경기 수원시 권선구 권선동 1297-2,127.035861569629,37.2504085774859
18248472,한솥도시락 권선롯데마트앞점,396,도시락, 한솥도시락,3.6,16,0,031-235-2990,http://place.map.kakao.com/18248472,경기 수원시 권선구 권선동 1296-2,127.03482374765912,37.251034211892936
1238025579,한솥도시락 수원권선시장점,590,도시락, 한솥도시락,5.0,1,0,031-237-7008,http://place.map.kakao.com/1238025579,경기 수원시 권선구 권선동 1050,127.02558035527426,37.25579858583391
19816478,본도시락 수원권선점,527,도시락, 본도시락,3.7,3,0,031-234-4280,http://place.map.kakao.com/19816478,경기 수원시 권선구 권선동 1297-3,127.03577013121723,37.250114864738265
1545491330,도시낙,625,도시락,-,4.2,9,18,031-307-1255,http://place.map.kakao.com/1545491330,경기 수원시 팔달구 인계동 1133,127.032916672215,37.2590062892694
595784236,13수제도시락,407,도시락,-,0,0,0,,http://place.map.kakao.com/595784236,경기 수원시 권선구 권선동 1164-9,127.03437305827164,37.25638474107169
1895979849,윤's Kitchen,885,도시락,-,0,0,0,010-5502-5715,http://place.map.kakao.com/1895979849,경기 수원시 권선구 곡반정동 506-2,127.034231865567,37.2457839981405
1689535977,구여사컵밥,927,도시락,-,5.0,1,18,,http://place.map.kakao.com/1689535977,경기 수원시 팔달구 인계동 1122-10,127.035141879273,37.2613249336666
665686724,육남매F&B,438,도시락,-,0,0,0,,http://place.map.kakao.com/665686724,경기 수원시 권선구 권선동 1038-17,127.029814791451,37.2571680821473
1729970263,스와이야기 권선점,714,도시락, 배달도시락,0,0,0,,http://place.map.kakao.com/1729970263,경기 수원시 권선구 권선동 1056-7,127.024420636547,37.2564385714938
908837132,한솥도시락 수원영통구청점,1271,도시락, 한솥도시락,5.0,1,0,031-213-9003,http://place.map.kakao.com/908837132,경기 수원시 영통구 매탄동 1267-3,127.043949527868,37.2592378801529
467498211,한솥도시락 영통아이파크캐슬점,1562,도시락, 한솥도시락,4.0,6,0,031-202-7531,http://place.map.kakao.com/467498211,경기 수원시 영통구 망포동 766,127.04387609099864,37.243405662662816
9155597,수미네 도시락식당,1344,도시락,-,0,0,0,031-224-4357,http://place.map.kakao.com/9155597,경기 수원시 권선구 권선동 940-5,127.023038527905,37.2634922112734
27543126,늘예솔,1521,도시락,-,0,0,0,010-3933-5411,http://place.map.kakao.com/27543126,경기 수원시 권선구 세류동 1011-13,127.01469466942,37.2559391979031
2145820030,한솥도시락 수원매교역점,1938,도시락, 한솥도시락,0,0,0,031-223-0888,http://place.map.kakao.com/2145820030,경기 수원시 팔달구 매교동 300,127.016578273398,37.2661801994544
20707261,번개막창,544,한식," 육류,고기 ",5.0,5,36,031-224-9289,http://place.map.kakao.com/20707261,경기 수원시 권선구 권선동 1296-7,127.035351725549,37.2496167129053
1229309470,예감쪽갈비 권선점,192,한식," 육류,고기 ",5.0,4,0,031-235-7333,http://place.map.kakao.com/1229309470,경기 수원시 권선구 권선동 1253-2,127.029423222192,37.253211698151
602523801,메가혼밥 수원본점,380,한식, 메가혼밥,0,0,0,,http://place.map.kakao.com/602523801,경기 수원시 권선구 권선동 1039-14,127.030120092648,37.2567030665767
1591884478,돈통마늘보쌈 수원매탄점,928,한식," 육류,고기 ",5.0,5,0,031-221-1717,http://place.map.kakao.com/1591884478,경기 수원시 영통구 매탄동 1165-1,127.041133404518,37.2568682478249
1340608798,김가네 수원시청역점,829,분식, 김가네,3.1,11,12,031-221-2121,http://place.map.kakao.com/1340608798,경기 수원시 팔달구 인계동 1125,127.033039227549,37.2608578979797
812691334,고돼지 수원권선점,453,한식," 육류,고기 ",0,0,0,031-234-2582,http://place.map.kakao.com/812691334,경기 수원시 권선구 권선동 1049-8,127.026903498281,37.2551477392284
1517183465,찜선생갈비s 본점,1380,한식," 육류,고기 ",4.0,12,139,031-206-6692,http://place.map.kakao.com/1517183465,경기 수원시 영통구 신동 937,127.04516332672216,37.2474238391183
1428920159,보은이네 착한막창,716,한식," 육류,고기 ",5.0,3,0,031-221-8870,http://place.map.kakao.com/1428920159,경기 수원시 권선구 권선동 1053,127.02504541214226,37.25728992683479
1637947145,돼가축산,1276,한식," 육류,고기",3.7,14,63,031-222-2192,http://place.map.kakao.com/1637947145,경기 수원시 팔달구 인계동 1042,127.03026203715088,37.264934054749205
388611643,따띠삼겹 수원매탄권선점,654,한식," 육류,고기 ",0,0,0,,http://place.map.kakao.com/388611643,경기 수원시 영통구 매탄동 1175-3,127.038349680989,37.2558032479523
17682514,사랑채 인계점,1338,술집," 호프,요리주점",3.0,6,0,,http://place.map.kakao.com/17682514,경기 수원시 팔달구 인계동 1040-4,127.0320548117896,37.26553277582829
1684066366,그린포유 인계점,1163,샐러드,-,5.0,13,27,070-8780-1118,http://place.map.kakao.com/1684066366,경기 수원시 팔달구 인계동 1120,127.0331025542305,37.26388448165648
1434540486,덮밥90도씨 수원인계점,974,한식, 덮밥90도씨,0,0,0,,http://place.map.kakao.com/1434540486,경기 수원시 권선구 권선동 1008-1,127.024426344199,37.2601508675605
23285429,오이시이태영생막창 인계점,1574,한식," 육류,고기 ",5.0,11,27,031-267-0774,http://place.map.kakao.com/23285429,경기 수원시 팔달구 인계동 991-8,127.024586237572,37.2665230052639
851286574,푸줏간 수원시청점,1090,한식," 육류,고기 ",0,0,0,,http://place.map.kakao.com/851286574,경기 수원시 팔달구 인계동 1046,127.031521756869,37.2632983346033
1795923412,전싸롱,1293,술집," 호프,요리주점",4.7,3,170,0503-7150-4214,http://place.map.kakao.com/1795923412,경기 수원시 팔달구 인계동 1031-4,127.02980774975931,37.26504409711817
1279919218,와로 수원인계점,1495,샐러드,-,0,0,0,,http://place.map.kakao.com/1279919218,경기 수원시 팔달구 인계동 1035-7,127.03049620494711,37.266922594001336
795573575,뱃살도둑 샐러드&과일 인계점,1502,샐러드,-,4.4,9,31,031-548-2191,http://place.map.kakao.com/795573575,경기 수원시 팔달구 인계동 1035-7,127.030518780242,37.2669901663211
703072618,냅다청양집 곡반정점,1716,술집, 실내포장마차 ,4.0,4,33,,http://place.map.kakao.com/703072618,경기 수원시 권선구 곡반정동 569-8,127.02933170493,37.2381183171132
15428817,황보네분식,326,분식,-,4.0,45,140,031-226-0137,http://place.map.kakao.com/15428817,경기 수원시 권선구 권선동 1042-16,127.029420874935,37.25587157939122
1055393258,중평떡볶이 본점,1165,분식, 떡볶이,2.6,86,366,031-226-8878,http://place.map.kakao.com/1055393258,경기 수원시 팔달구 인계동 1113-8,127.0316483051644,37.26398038979176
104291695,보영만두 권선직영점,132,분식,-,3.1,7,25,031-308-3318,http://place.map.kakao.com/104291695,경기 수원시 권선구 권선동 1252-1,127.030197524411,37.2530060652358
26934441,동대문엽기떡볶이 수원권선점,486,분식, 떡볶이 ,1.5,19,17,031-234-8592,http://place.map.kakao.com/26934441,경기 수원시 권선구 권선동 1297-5,127.03558433356832,37.2505023697312
827942384,최배달떡순튀 본점,521,분식,-,4.2,10,11,031-215-2960,http://place.map.kakao.com/827942384,경기 수원시 팔달구 인계동 1135-1,127.032104667365,37.2581559276764
1027650716,오토김밥 수원시청점,715,분식,-,4.6,8,61,031-225-5255,http://place.map.kakao.com/1027650716,경기 수원시 팔달구 인계동 1131,127.03154176926648,37.25992392512256
2145518793,또맛나김밥,399,분식,-,4.7,7,0,031-236-8735,http://place.map.kakao.com/2145518793,경기 수원시 권선구 권선동 1296-2,127.034855298714,37.251013478606
125045537,불스떡볶이 권선점,185,분식, 떡볶이,5.0,3,0,031-267-3030,http://place.map.kakao.com/125045537,경기 수원시 권선구 권선동 1255-3,127.02958655439,37.2529269276192
2031947291,김밥집,472,분식,-,4.6,9,0,010-7743-8734,http://place.map.kakao.com/2031947291,경기 수원시 권선구 권선동 1047-18,127.027343449124,37.2560685048272
1748279787,고봉민김밥인 수원권선점,277,분식, 고봉민김밥인,3.0,2,0,0502-5550-4635,http://place.map.kakao.com/1748279787,경기 수원시 권선구 권선동 1330,127.028444972864,37.2536309225434
611227910,못난이떡볶이,694,분식, 떡볶이,4.9,17,12,010-3111-4067,http://place.map.kakao.com/611227910,경기 수원시 권선구 권선동 1051,127.02460547453283,37.25634572576588
419889926,오늘애김밥 수원권선점,206,분식,-,4.0,4,11,031-225-2355,http://place.map.kakao.com/419889926,경기 수원시 권선구 권선동 1259-6,127.02970130449,37.2523574391637
2007099371,북촌손만두 수원권선점,397,분식, 북촌손만두,4.7,3,0,031-235-1101,http://place.map.kakao.com/2007099371,경기 수원시 권선구 권선동 1043-11,127.02750199845576,37.25499172118976
8813623,김밥천국 인계2호점,508,분식,-,4.1,8,0,031-233-0854,http://place.map.kakao.com/8813623,경기 수원시 팔달구 인계동 1135-1,127.032077563967,37.258040601514
1068210892,김밥천국,781,분식,-,3.3,16,0,031-222-2555,http://place.map.kakao.com/1068210892,경기 수원시 권선구 권선동 1364,127.03040344128956,37.24650047261441
16632548,감동튀김,1002,분식,-,4.7,13,43,031-235-2347,http://place.map.kakao.com/16632548,경기 수원시 영통구 매탄동 1273-3,127.041663576802,37.257529428124
15437745,김밥천국,561,분식,-,4.0,4,0,031-233-0015,http://place.map.kakao.com/15437745,경기 수원시 권선구 권선동 1049-12,127.025759480778,37.25549039016
1757828642,청년다방 수원권선점,564,분식, 떡볶이 ,3.6,5,0,031-232-2968,http://place.map.kakao.com/1757828642,경기 수원시 권선구 권선동 1296-7,127.0354429418516,37.24944098199253
1044197455,호롤롤로,452,분식,-,5.0,1,22,070-4333-2423,http://place.map.kakao.com/1044197455,경기 수원시 권선구 권선동 1049-7,127.0270422256258,37.255367562234895
21386721,소담만두,589,분식,-,5.0,5,11,031-222-5769,http://place.map.kakao.com/21386721,경기 수원시 권선구 권선동 1050,127.0256841135461,37.25595354283483
688293677,정담김밥,803,분식,-,3.4,5,0,031-232-0958,http://place.map.kakao.com/688293677,경기 수원시 권선구 권선동 1023-2,127.03088261699796,37.26069899560813
1302602747,김밥왕국,541,분식,-,2.4,7,0,031-222-7720,http://place.map.kakao.com/1302602747,경기 수원시 권선구 권선동 1291-9,127.03663271289072,37.25075794657605
462143466,동대문엽기떡볶이 수원터미널점,885,분식, 떡볶이 ,3.3,4,11,031-238-8592,http://place.map.kakao.com/462143466,경기 수원시 권선구 권선동 1192-2,127.022700729482,37.2498207469268
1582635359,명근이네꽈배기분식,299,분식,-,0,0,0,010-9074-9030,http://place.map.kakao.com/1582635359,경기 수원시 권선구 권선동 1041-8,127.030046498321,37.2558894431521
1452192678,만두에진심,753,분식,-,5.0,2,0,010-5888-6700,http://place.map.kakao.com/1452192678,경기 수원시 권선구 권선동 1061-6,127.023531006542,37.2556872814622
9814115,보보스분식,878,분식,-,3.0,1,11,031-234-1050,http://place.map.kakao.com/9814115,경기 수원시 권선구 권선동 1013-13,127.0303361272031,37.26133437191916
650849183,감탄떡볶이 롯데마트권선점,446,분식, 떡볶이 ,4.7,6,0,,http://place.map.kakao.com/650849183,경기 수원시 권선구 권선동 1296-5,127.034617128262,37.2502728901708
9729529,동대문엽기떡볶이 수원인계점,1138,분식, 떡볶이 ,2.7,19,38,031-236-8592,http://place.map.kakao.com/9729529,경기 수원시 팔달구 인계동 1120,127.03347108234998,37.26361947164718
177156811,수제웰빙만두,719,분식,-,4.8,5,0,031-221-6944,http://place.map.kakao.com/177156811,경기 수원시 권선구 권선동 1186,127.02383742211306,37.2515000699278
117308389,한끼한줄,718,분식,-,3.0,3,0,031-236-0010,http://place.map.kakao.com/117308389,경기 수원시 영통구 매탄동 1172-12,127.039402165879,37.2551253177489
1567302080,용기분식,653,분식, 떡볶이,4.2,9,0,031-302-2430,http://place.map.kakao.com/1567302080,경기 수원시 권선구 권선동 1311-8,127.0359588455416,37.24875332957284
251080461,또와또김밥,921,분식,-,4.5,17,14,031-8019-8543,http://place.map.kakao.com/251080461,경기 수원시 권선구 권선동 1013,127.029752303085,37.2616561922482
851561480,넘버원김밥,686,분식,-,1.0,2,13,031-234-9333,http://place.map.kakao.com/851561480,경기 수원시 권선구 권선동 1051,127.02463587137734,37.25622678172612
9668654,김밥천국 인계점,1146,분식,-,1.9,25,13,031-267-2845,http://place.map.kakao.com/9668654,경기 수원시 팔달구 인계동 1120,127.033022451381,37.263745743533
866689611,쏭스컵밥&카페,413,분식,-,0,0,0,031-221-8797,http://place.map.kakao.com/866689611,경기 수원시 권선구 권선동 1296-2,127.034982637421,37.2509467637895
16747588,김밥천국,708,분식,-,0,0,0,031-239-2727,http://place.map.kakao.com/16747588,경기 수원시 영통구 매탄동 1162,127.03756042892,37.2576965927792
22214003,공룡알떡볶이,337,분식, 떡볶이,0,0,0,,http://place.map.kakao.com/22214003,경기 수원시 권선구 권선동 1330,127.027913690224,37.2526281872416
7909291,보영만두 인계점,1438,분식,-,2.3,28,45,031-221-5786,http://place.map.kakao.com/7909291,경기 수원시 팔달구 인계동 1039-1,127.03122881587838,37.26643854362637
8818024,김밥나라,840,분식,-,4.8,9,11,031-224-5415,http://place.map.kakao.com/8818024,경기 수원시 권선구 권선동 1191-2,127.022930832538,37.2503658343865
1278767469,장호덕손만두 수원아이파크점,764,분식, 장호덕손만두,5.0,1,0,031-225-1940,http://place.map.kakao.com/1278767469,경기 수원시 권선구 권선동 1364,127.030142028032,37.2466843525719
753145093,행컵 권선점,608,분식,-,3.8,4,0,031-221-8599,http://place.map.kakao.com/753145093,경기 수원시 권선구 권선동 1286-8,127.03800375782,37.2515900792014
1327016163,엔젤분식,260,분식,-,0,0,0,031-223-7747,http://place.map.kakao.com/1327016163,경기 수원시 권선구 권선동 1270,127.03261686902,37.2512880337608
21515219,코끼리분식,961,분식,-,3.5,2,0,031-238-2294,http://place.map.kakao.com/21515219,경기 수원시 영통구 매탄동 1161-15,127.0403790249254,37.2585147131908
20706237,보영만두 매탄직영점,1295,분식,-,2.5,18,30,031-212-1331,http://place.map.kakao.com/20706237,경기 수원시 영통구 매탄동 1261-1,127.043667027862,37.2600155845982
